{
  "norad_id": 68364,
  "name": "RASSVET-3 OBJECT E",
  "history": [
    {
      "epoch": "2026-03-31T15:46:33.024288Z",
      "apogee_km": 324.3647619380836,
      "perigee_km": 288.0940529380432,
      "latitude_deg": -6.875770667247171e-05,
      "longitude_deg": 34.0420305138638,
      "height_km": 296.4498370110409,
      "semi_major_axis_km": 6684.366407438063,
      "eccentricity": 0.0027131,
      "inclination_deg": 82.297,
      "raan_deg": 99.7112,
      "arg_perigee_deg": 44.667,
      "mean_anomaly_deg": 315.6779,
      "mean_motion_rev_day": 15.88592069
    }
  ]
}